CCSDS_OMM_VERS = 2.0
CREATION_DATE  = 
ORIGINATOR     = 

OBJECT_NAME    = TRANSPORTER-15 K
OBJECT_ID      = 2025-276K
CENTER_NAME    = EARTH
REF_FRAME      = TEME
TIME_SYSTEM    = UTC
MEAN_ELEMENT_THEORY = SGP/SGP4

EPOCH          = 2025-12-21T02:54:57.231072
MEAN_MOTION    = 15.16970625
ECCENTRICITY   = .0004993
INCLINATION    = 97.4395
RA_OF_ASC_NODE = 66.7158
ARG_OF_PERICENTER = 266.7330
MEAN_ANOMALY   = 93.3332

EPHEMERIS_TYPE = 0
CLASSIFICATION_TYPE = U
NORAD_CAT_ID   = 66675
ELEMENT_SET_NO = 999
REV_AT_EPOCH   = 339
BSTAR          = .39192E-3
MEAN_MOTION_DOT = .7676E-4
MEAN_MOTION_DDOT = 0

CCSDS_OMM_VERS = 2.0
CREATION_DATE  = 
ORIGINATOR     = 

OBJECT_NAME    = TRANSPORTER-15 L
OBJECT_ID      = 2025-276L
CENTER_NAME    = EARTH
REF_FRAME      = TEME
TIME_SYSTEM    = UTC
MEAN_ELEMENT_THEORY = SGP/SGP4

EPOCH          = 2025-12-21T02:57:05.116032
MEAN_MOTION    = 15.16769936
ECCENTRICITY   = .0004759
INCLINATION    = 97.4397
RA_OF_ASC_NODE = 66.7141
ARG_OF_PERICENTER = 265.0151
MEAN_ANOMALY   = 95.0539

EPHEMERIS_TYPE = 0
CLASSIFICATION_TYPE = U
NORAD_CAT_ID   = 66676
ELEMENT_SET_NO = 999
REV_AT_EPOCH   = 339
BSTAR          = .27025E-3
MEAN_MOTION_DOT = .524E-4
MEAN_MOTION_DDOT = 0

CCSDS_OMM_VERS = 2.0
CREATION_DATE  = 
ORIGINATOR     = 

OBJECT_NAME    = TRANSPORTER-15 M
OBJECT_ID      = 2025-276M
CENTER_NAME    = EARTH
REF_FRAME      = TEME
TIME_SYSTEM    = UTC
MEAN_ELEMENT_THEORY = SGP/SGP4

EPOCH          = 2025-12-21T04:21:54.230688
MEAN_MOTION    = 15.17428007
ECCENTRICITY   = .0003815
INCLINATION    = 97.4391
RA_OF_ASC_NODE = 66.7858
ARG_OF_PERICENTER = 271.7584
MEAN_ANOMALY   = 88.3213

EPHEMERIS_TYPE = 0
CLASSIFICATION_TYPE = U
NORAD_CAT_ID   = 66677
ELEMENT_SET_NO = 999
REV_AT_EPOCH   = 340
BSTAR          = .44759E-3
MEAN_MOTION_DOT = .8892E-4
MEAN_MOTION_DDOT = 0

CCSDS_OMM_VERS = 2.0
CREATION_DATE  = 
ORIGINATOR     = 

OBJECT_NAME    = TRANSPORTER-15 N
OBJECT_ID      = 2025-276N
CENTER_NAME    = EARTH
REF_FRAME      = TEME
TIME_SYSTEM    = UTC
MEAN_ELEMENT_THEORY = SGP/SGP4

EPOCH          = 2025-12-21T02:56:14.827776
MEAN_MOTION    = 15.16828008
ECCENTRICITY   = .0004792
INCLINATION    = 97.4433
RA_OF_ASC_NODE = 66.7238
ARG_OF_PERICENTER = 257.5132
MEAN_ANOMALY   = 102.5565

EPHEMERIS_TYPE = 0
CLASSIFICATION_TYPE = U
NORAD_CAT_ID   = 66678
ELEMENT_SET_NO = 999
REV_AT_EPOCH   = 339
BSTAR          = .32947E-3
MEAN_MOTION_DOT = .6415E-4
MEAN_MOTION_DDOT = 0

CCSDS_OMM_VERS = 2.0
CREATION_DATE  = 
ORIGINATOR     = 

OBJECT_NAME    = TRANSPORTER-15 P
OBJECT_ID      = 2025-276P
CENTER_NAME    = EARTH
REF_FRAME      = TEME
TIME_SYSTEM    = UTC
MEAN_ELEMENT_THEORY = SGP/SGP4

EPOCH          = 2025-12-21T02:57:49.123008
MEAN_MOTION    = 15.16674496
ECCENTRICITY   = .0004552
INCLINATION    = 97.4373
RA_OF_ASC_NODE = 66.7071
ARG_OF_PERICENTER = 266.0590
MEAN_ANOMALY   = 94.0123

EPHEMERIS_TYPE = 0
CLASSIFICATION_TYPE = U
NORAD_CAT_ID   = 66679
ELEMENT_SET_NO = 999
REV_AT_EPOCH   = 339
BSTAR          = .23163E-3
MEAN_MOTION_DOT = .4469E-4
MEAN_MOTION_DDOT = 0

CCSDS_OMM_VERS = 2.0
CREATION_DATE  = 
ORIGINATOR     = 

OBJECT_NAME    = TRANSPORTER-15 Q
OBJECT_ID      = 2025-276Q
CENTER_NAME    = EARTH
REF_FRAME      = TEME
TIME_SYSTEM    = UTC
MEAN_ELEMENT_THEORY = SGP/SGP4

EPOCH          = 2025-12-21T04:30:56.251584
MEAN_MOTION    = 15.16807245
ECCENTRICITY   = .0004622
INCLINATION    = 97.4418
RA_OF_ASC_NODE = 66.7861
ARG_OF_PERICENTER = 253.8717
MEAN_ANOMALY   = 106.2007

EPHEMERIS_TYPE = 0
CLASSIFICATION_TYPE = U
NORAD_CAT_ID   = 66680
ELEMENT_SET_NO = 999
REV_AT_EPOCH   = 340
BSTAR          = .30904E-3
MEAN_MOTION_DOT = .6009E-4
MEAN_MOTION_DDOT = 0

CCSDS_OMM_VERS = 2.0
CREATION_DATE  = 
ORIGINATOR     = 

OBJECT_NAME    = TRANSPORTER-15 R
OBJECT_ID      = 2025-276R
CENTER_NAME    = EARTH
REF_FRAME      = TEME
TIME_SYSTEM    = UTC
MEAN_ELEMENT_THEORY = SGP/SGP4

EPOCH          = 2025-12-21T04:24:35.701920
MEAN_MOTION    = 15.17375876
ECCENTRICITY   = .0004903
INCLINATION    = 97.4343
RA_OF_ASC_NODE = 66.7708
ARG_OF_PERICENTER = 282.7538
MEAN_ANOMALY   = 77.3148

EPHEMERIS_TYPE = 0
CLASSIFICATION_TYPE = U
NORAD_CAT_ID   = 66681
ELEMENT_SET_NO = 999
REV_AT_EPOCH   = 340
BSTAR          = .55571E-3
MEAN_MOTION_DOT = .11043E-3
MEAN_MOTION_DDOT = 0

CCSDS_OMM_VERS = 2.0
CREATION_DATE  = 
ORIGINATOR     = 

OBJECT_NAME    = TRANSPORTER-15 S
OBJECT_ID      = 2025-276S
CENTER_NAME    = EARTH
REF_FRAME      = TEME
TIME_SYSTEM    = UTC
MEAN_ELEMENT_THEORY = SGP/SGP4

EPOCH          = 2025-12-21T04:27:24.365952
MEAN_MOTION    = 15.17098003
ECCENTRICITY   = .0004776
INCLINATION    = 97.4463
RA_OF_ASC_NODE = 66.8011
ARG_OF_PERICENTER = 246.2094
MEAN_ANOMALY   = 113.8639

EPHEMERIS_TYPE = 0
CLASSIFICATION_TYPE = U
NORAD_CAT_ID   = 66682
ELEMENT_SET_NO = 999
REV_AT_EPOCH   = 340
BSTAR          = .36053E-3
MEAN_MOTION_DOT = .7081E-4
MEAN_MOTION_DDOT = 0

CCSDS_OMM_VERS = 2.0
CREATION_DATE  = 
ORIGINATOR     = 

OBJECT_NAME    = TRANSPORTER-15 T
OBJECT_ID      = 2025-276T
CENTER_NAME    = EARTH
REF_FRAME      = TEME
TIME_SYSTEM    = UTC
MEAN_ELEMENT_THEORY = SGP/SGP4

EPOCH          = 2025-12-21T04:28:24.954816
MEAN_MOTION    = 15.16987766
ECCENTRICITY   = .0004634
INCLINATION    = 97.4457
RA_OF_ASC_NODE = 66.7988
ARG_OF_PERICENTER = 248.8923
MEAN_ANOMALY   = 111.1815

EPHEMERIS_TYPE = 0
CLASSIFICATION_TYPE = U
NORAD_CAT_ID   = 66683
ELEMENT_SET_NO = 999
REV_AT_EPOCH   = 340
BSTAR          = .3232E-3
MEAN_MOTION_DOT = .632E-4
MEAN_MOTION_DDOT = 0

CCSDS_OMM_VERS = 2.0
CREATION_DATE  = 
ORIGINATOR     = 

OBJECT_NAME    = TRANSPORTER-15 U
OBJECT_ID      = 2025-276U
CENTER_NAME    = EARTH
REF_FRAME      = TEME
TIME_SYSTEM    = UTC
MEAN_ELEMENT_THEORY = SGP/SGP4

EPOCH          = 2025-12-21T04:24:21.089088
MEAN_MOTION    = 15.17264777
ECCENTRICITY   = .0004531
INCLINATION    = 97.4481
RA_OF_ASC_NODE = 66.8092
ARG_OF_PERICENTER = 249.3029
MEAN_ANOMALY   = 110.7719

EPHEMERIS_TYPE = 0
CLASSIFICATION_TYPE = U
NORAD_CAT_ID   = 66684
ELEMENT_SET_NO = 999
REV_AT_EPOCH   = 340
BSTAR          = .31225E-3
MEAN_MOTION_DOT = .6152E-4
MEAN_MOTION_DDOT = 0

CCSDS_OMM_VERS = 2.0
CREATION_DATE  = 
ORIGINATOR     = 

OBJECT_NAME    = TRANSPORTER-15 V
OBJECT_ID      = 2025-276V
CENTER_NAME    = EARTH
REF_FRAME      = TEME
TIME_SYSTEM    = UTC
MEAN_ELEMENT_THEORY = SGP/SGP4

EPOCH          = 2025-12-21T02:47:44.889792
MEAN_MOTION    = 15.17412859
ECCENTRICITY   = .0003928
INCLINATION    = 97.4425
RA_OF_ASC_NODE = 66.7306
ARG_OF_PERICENTER = 272.0093
MEAN_ANOMALY   = 88.0691

EPHEMERIS_TYPE = 0
CLASSIFICATION_TYPE = U
NORAD_CAT_ID   = 66685
ELEMENT_SET_NO = 999
REV_AT_EPOCH   = 339
BSTAR          = .55054E-3
MEAN_MOTION_DOT = .1095E-3
MEAN_MOTION_DDOT = 0

CCSDS_OMM_VERS = 2.0
CREATION_DATE  = 
ORIGINATOR     = 

OBJECT_NAME    = TRANSPORTER-15 W
OBJECT_ID      = 2025-276W
CENTER_NAME    = EARTH
REF_FRAME      = TEME
TIME_SYSTEM    = UTC
MEAN_ELEMENT_THEORY = SGP/SGP4

EPOCH          = 2025-12-21T04:27:13.190112
MEAN_MOTION    = 15.16981751
ECCENTRICITY   = .0004028
INCLINATION    = 97.4460
RA_OF_ASC_NODE = 66.8015
ARG_OF_PERICENTER = 251.3981
MEAN_ANOMALY   = 108.6815

EPHEMERIS_TYPE = 0
CLASSIFICATION_TYPE = U
NORAD_CAT_ID   = 66686
ELEMENT_SET_NO = 999
REV_AT_EPOCH   = 340
BSTAR          = .26246E-3
MEAN_MOTION_DOT = .5118E-4
MEAN_MOTION_DDOT = 0

