TRANSPORTER-15 K        
1 66675U 25276K   25355.12149573  .00007676  00000+0  39192-3 0  9996
2 66675  97.4395  66.7158 0004993 266.7330  93.3332 15.16970625  3394
TRANSPORTER-15 L        
1 66676U 25276L   25355.12297588  .00005240  00000+0  27025-3 0  9994
2 66676  97.4397  66.7141 0004759 265.0151  95.0539 15.16769936  3391
TRANSPORTER-15 M        
1 66677U 25276M   25355.18187767  .00008892  00000+0  44759-3 0  9997
2 66677  97.4391  66.7858 0003815 271.7584  88.3213 15.17428007  3405
TRANSPORTER-15 N        
1 66678U 25276N   25355.12239384  .00006415  00000+0  32947-3 0  9990
2 66678  97.4433  66.7238 0004792 257.5132 102.5565 15.16828008  3392
TRANSPORTER-15 P        
1 66679U 25276P   25355.12348522  .00004469  00000+0  23163-3 0  9993
2 66679  97.4373  66.7071 0004552 266.0590  94.0123 15.16674496  3393
TRANSPORTER-15 Q        
1 66680U 25276Q   25355.18815106  .00006009  00000+0  30904-3 0  9991
2 66680  97.4418  66.7861 0004622 253.8717 106.2007 15.16807245  3404
TRANSPORTER-15 R        
1 66681U 25276R   25355.18374655  .00011043  00000+0  55571-3 0  9992
2 66681  97.4343  66.7708 0004903 282.7538  77.3148 15.17375876  3401
TRANSPORTER-15 S        
1 66682U 25276S   25355.18569868  .00007081  00000+0  36053-3 0  9996
2 66682  97.4463  66.8011 0004776 246.2094 113.8639 15.17098003  3408
TRANSPORTER-15 T        
1 66683U 25276T   25355.18639994  .00006320  00000+0  32320-3 0  9993
2 66683  97.4457  66.7988 0004634 248.8923 111.1815 15.16987766  3405
TRANSPORTER-15 U        
1 66684U 25276U   25355.18357742  .00006152  00000+0  31225-3 0  9998
2 66684  97.4481  66.8092 0004531 249.3029 110.7719 15.17264777  3408
TRANSPORTER-15 V        
1 66685U 25276V   25355.11649178  .00010950  00000+0  55054-3 0  9996
2 66685  97.4425  66.7306 0003928 272.0093  88.0691 15.17412859  3397
TRANSPORTER-15 W        
1 66686U 25276W   25355.18556933  .00005118  00000+0  26246-3 0  9991
2 66686  97.4460  66.8015 0004028 251.3981 108.6815 15.16981751  3403
